<?xml version="1.0" encoding="UTF-8"?>
<kml xmlns="http://www.opengis.net/kml/2.2">
  <Document>
    <name>Roseville Trenchless Sewer, Hydro Jetting & French Drain Pros - Service Coverage Area</name>
    <description>Service radius and coverage boundary for Roseville Trenchless Sewer, Hydro Jetting & French Drain Pros.</description>
    <Style id="ring_5mi">
      <LineStyle>
        <color>ff00cc00</color>
        <width>2.5</width>
      </LineStyle>
      <PolyStyle>
        <color>3300ff00</color>
        <fill>1</fill>
        <outline>1</outline>
      </PolyStyle>
    </Style>
    <Style id="ring_10mi">
      <LineStyle>
        <color>ff00aaff</color>
        <width>2.5</width>
      </LineStyle>
      <PolyStyle>
        <color>3300ffff</color>
        <fill>1</fill>
        <outline>1</outline>
      </PolyStyle>
    </Style>
    <Style id="ring_15mi">
      <LineStyle>
        <color>ffffaa00</color>
        <width>2.5</width>
      </LineStyle>
      <PolyStyle>
        <color>33ffaa00</color>
        <fill>1</fill>
        <outline>1</outline>
      </PolyStyle>
    </Style>
    <Style id="ring_25mi">
      <LineStyle>
        <color>ffff0055</color>
        <width>2.5</width>
      </LineStyle>
      <PolyStyle>
        <color>33ff0055</color>
        <fill>1</fill>
        <outline>1</outline>
      </PolyStyle>
    </Style>
    <Placemark>
      <name>Roseville Trenchless Sewer, Hydro Jetting & French Drain Pros (Main Office)</name>
      <description>Main office location: 38.752124, -121.288006</description>
      <Point>
        <coordinates>-121.288006,38.752124,0</coordinates>
      </Point>
    </Placemark>
    <Placemark>
      <name>25-Mile Radius Coverage Boundary</name>
      <styleUrl>#ring_25mi</styleUrl>
      <Polygon>
        <outerBoundaryIs>
          <LinearRing>
            <coordinates>-121.288006,39.11394942382213,0 -121.24229868273675,39.11219825766519,0 -121.19703828228923,39.106961883481546,0 -121.15266714676609,39.09829149895422,0 -121.10961854156037,39.08627185173351,0 -121.068312243753,39.07102037403943,0 -121.02915029670295,39.052685985636515,0 -120.99251297376591,39.03144757939499,0 -120.958754996449,39.00751220727217,0 -120.9282020479788,38.981112987856086,0 -120.90114761836588,38.95250675956269,0 -120.87785021172883,38.921971506129125,0 -120.85853094104029,38.88980358317429,0 -120.84337152971924,38.856314776288144,0 -120.83251273375834,38.8218292223597,0 -120.82605319246603,38.78668022666791,0 -120.82404871053262,38.75120700865338,0 -120.82651196909248,38.71575140928813,0 -120.83341265881948,38.680654592592525,0 -120.84467802391738,38.646253773148395,0 -120.8601938021776,38.61287900046091,0 -120.87980554309081,38.580850029768044,0 -120.90332028330673,38.55047330742153,0 -120.93050855652162,38.52203909730449,0 -120.96110671310136,38.4958187729429,0 -120.99481952337618,38.47206229803929,0 -121.03132303752655,38.450995916138794,0 -121.07026767426056,38.432820068048976,0 -121.11128151001208,38.41770755349973,0 -121.15397374010982,38.40580195136056,0 -121.19793828323311,38.39721631054359,0 -121.24275750043061,38.392032121520785,0 -121.288006,38.39029857617787,0 -121.33325449956936,38.392032121520785,0 -121.37807371676688,38.39721631054359,0 -121.42203825989017,38.40580195136056,0 -121.46473048998791,38.41770755349973,0 -121.50574432573943,38.432820068048976,0 -121.54468896247344,38.450995916138794,0 -121.5811924766238,38.47206229803929,0 -121.61490528689862,38.4958187729429,0 -121.64550344347838,38.52203909730449,0 -121.67269171669327,38.55047330742153,0 -121.69620645690917,38.580850029768044,0 -121.71581819782237,38.61287900046091,0 -121.73133397608261,38.646253773148395,0 -121.7425993411805,38.680654592592525,0 -121.7495000309075,38.71575140928813,0 -121.75196328946735,38.75120700865338,0 -121.74995880753394,38.78668022666791,0 -121.74349926624164,38.8218292223597,0 -121.73264047028076,38.856314776288144,0 -121.71748105895969,38.88980358317429,0 -121.69816178827116,38.921971506129125,0 -121.67486438163411,38.95250675956269,0 -121.64780995202119,38.981112987856086,0 -121.61725700355099,39.00751220727217,0 -121.58349902623407,39.03144757939499,0 -121.54686170329703,39.052685985636515,0 -121.50769975624698,39.07102037403943,0 -121.46639345843961,39.08627185173351,0 -121.42334485323389,39.09829149895422,0 -121.37897371771075,39.106961883481546,0 -121.33371331726325,39.11219825766519,0 -121.288006,39.11394942382213,0</coordinates>
          </LinearRing>
        </outerBoundaryIs>
      </Polygon>
    </Placemark>
    <Placemark>
      <name>15-Mile Radius Coverage Boundary</name>
      <styleUrl>#ring_15mi</styleUrl>
      <Polygon>
        <outerBoundaryIs>
          <LinearRing>
            <coordinates>-121.288006,38.96921925429328,0 -121.26063734334487,38.968170695098074,0 -121.23353466675954,38.965035208312905,0 -121.20696129507643,38.95984326457657,0 -121.18117527193736,38.95264531020277,0 -121.15642679197467,38.94351126397262,0 -121.132955719118,38.932529820421266,0 -121.11098921775776,38.91980756725715,0 -121.09073952186475,38.90546792654009,0 -121.07240186520232,38.88964993109315,0 -121.05615259351751,38.87250684930955,0 -121.04214747711563,38.85420467301896,0 -121.03052023955942,38.83492048438323,0 -121.02138131544697,38.8148407188866,0 -121.0148168473676,38.794159342364594,0 -121.01088792926342,38.77307596067516,0 -121.00963010058618,38.75179388105609,0 -121.01105309287708,38.73051814443968,0 -121.01514082775269,38.70945354801618,0 -121.02185166277863,38.68880267716159,0 -121.03111887938464,38.66876396548622,0 -121.04285140483304,38.64952980123053,0 -121.05693475831089,38.631284697550136,0 -121.07323220947696,38.61420354340652,0 -121.09158613625871,38.59844995083037,0 -121.11181956735466,38.58417471326465,0 -121.1337378937457,38.57151438853947,0 -121.15713073254123,38.56059001879402,0 -121.18177392567037,38.551505998354315,0 -121.20743165525725,38.54434909921221,0 -121.23385865697897,38.53918766233899,0 -121.2608025122808,38.536070961618705,0 -121.288006,38.53502874570672,0 -121.31520948771917,38.536070961618705,0 -121.34215334302101,38.53918766233899,0 -121.36858034474272,38.54434909921221,0 -121.3942380743296,38.551505998354315,0 -121.41888126745876,38.56059001879402,0 -121.44227410625427,38.57151438853947,0 -121.46419243264532,38.58417471326465,0 -121.48442586374127,38.59844995083037,0 -121.50277979052302,38.61420354340652,0 -121.51907724168909,38.631284697550136,0 -121.53316059516695,38.64952980123053,0 -121.54489312061534,38.66876396548622,0 -121.55416033722135,38.68880267716159,0 -121.56087117224729,38.70945354801618,0 -121.5649589071229,38.73051814443968,0 -121.5663818994138,38.75179388105609,0 -121.56512407073656,38.77307596067516,0 -121.5611951526324,38.794159342364594,0 -121.554630684553,38.8148407188866,0 -121.54549176044056,38.83492048438323,0 -121.53386452288434,38.85420467301896,0 -121.51985940648247,38.87250684930955,0 -121.50361013479765,38.88964993109315,0 -121.48527247813523,38.90546792654009,0 -121.46502278224222,38.91980756725715,0 -121.44305628088199,38.932529820421266,0 -121.41958520802531,38.94351126397262,0 -121.39483672806263,38.95264531020277,0 -121.36905070492355,38.95984326457657,0 -121.34247733324044,38.965035208312905,0 -121.31537465665512,38.968170695098074,0 -121.288006,38.96921925429328,0</coordinates>
          </LinearRing>
        </outerBoundaryIs>
      </Polygon>
    </Placemark>
    <Placemark>
      <name>10-Mile Radius Coverage Boundary</name>
      <styleUrl>#ring_10mi</styleUrl>
      <Polygon>
        <outerBoundaryIs>
          <LinearRing>
            <coordinates>-121.288006,38.89685416952885,0 -121.26977872155202,38.89615584028405,0 -121.25172804665662,38.89406761881033,0 -121.23402883677626,38.89060973713453,0 -121.21685248759019,38.88581569348999,0 -121.20036524185402,38.87973192205965,0 -121.184726556487,38.87241733550407,0 -121.17008754085572,38.86394274508394,0 -121.15658948230404,38.85439016445324,0 -121.14436247386477,38.84385200438616,0 -121.13352415780412,38.832430166795994,0 -121.12417859721683,38.82023504739526,0 -121.11641528633767,38.8073844572213,0 -121.11030830858896,38.79400247400581,0 -121.10591564967389,38.78021823498967,0 -121.1032786712788,38.76616468327756,0 -121.10242174919009,38.751977280183375,0 -121.10335207788877,38.73779269624162,0 -121.10605964197885,38.723747493651494,0 -121.11051735315587,38.70997681288381,0 -121.11668134984549,38.696613076020796,0 -121.12449145515052,38.683784719122094,0 -121.13387178735319,38.67161496552294,0 -121.14473151593113,38.66022065148063,0 -121.15696575486787,38.649711115002106,0 -121.17045658397339,38.640187158015394,0 -121.18507418797866,38.63174009130091,0 -121.20067810232585,38.624450870783114,0 -121.21711855384525,38.61838933290664,0 -121.23423788388129,38.613613535893165,0 -121.25187204090416,38.61016921270201,0 -121.2698521292133,38.608089340508094,0 -121.288006,38.60739383047114,0 -121.30615987078667,38.608089340508094,0 -121.32413995909582,38.61016921270201,0 -121.3417741161187,38.613613535893165,0 -121.35889344615474,38.61838933290664,0 -121.37533389767412,38.624450870783114,0 -121.39093781202133,38.63174009130091,0 -121.40555541602659,38.640187158015394,0 -121.41904624513212,38.649711115002106,0 -121.43128048406885,38.66022065148063,0 -121.44214021264679,38.67161496552294,0 -121.45152054484946,38.683784719122094,0 -121.45933065015448,38.696613076020796,0 -121.4654946468441,38.70997681288381,0 -121.46995235802113,38.723747493651494,0 -121.4726599221112,38.73779269624162,0 -121.47359025080989,38.751977280183375,0 -121.47273332872119,38.76616468327756,0 -121.47009635032609,38.78021823498967,0 -121.46570369141102,38.79400247400581,0 -121.45959671366231,38.8073844572213,0 -121.45183340278315,38.82023504739526,0 -121.44248784219586,38.832430166795994,0 -121.4316495261352,38.84385200438616,0 -121.41942251769595,38.85439016445324,0 -121.40592445914426,38.86394274508394,0 -121.39128544351298,38.87241733550407,0 -121.37564675814596,38.87973192205965,0 -121.35915951240979,38.88581569348999,0 -121.34198316322372,38.89060973713453,0 -121.32428395334335,38.89406761881033,0 -121.30623327844798,38.89615584028405,0 -121.288006,38.89685416952885,0</coordinates>
          </LinearRing>
        </outerBoundaryIs>
      </Polygon>
    </Placemark>
    <Placemark>
      <name>5-Mile Radius Coverage Boundary</name>
      <styleUrl>#ring_5mi</styleUrl>
      <Polygon>
        <outerBoundaryIs>
          <LinearRing>
            <coordinates>-121.288006,38.82448908476442,0 -121.27890157884187,38.824140274163625,0 -121.2698851034738,38.82309721179325,0 -121.26104366247992,38.82136997310584,0 -121.25246263868542,38.81897524137564,0 -121.24422487781042,38.81593614513541,0 -121.23640988268849,38.81228203288837,0 -121.22909304111667,38.80804818736367,0 -121.22234489502388,38.80327548218799,0 -121.21623045818048,38.79800998441683,0 -121.21080858913099,38.79230250690181,0 -121.20613142542342,38.786208114959095,0 -121.20224388453867,38.77978559224355,0 -121.19918323620648,38.77309687111957,0 -121.19697875003395,38.766206433149534,0 -121.19565142158417,38.75918068559098,0 -121.19521377923411,38.75208732000294,0 -121.19566977332059,38.744994659209034,0 -121.1970147482636,38.73797099894821,0 -121.19923549754449,38.73108395056639,0 -121.20231040062012,38.724399791061984,0 -121.20620964008239,38.71798282669787,0 -121.21089549663107,38.71189477623511,0 -121.21632271872203,38.706194179629904,0 -121.22243896308981,38.70093583776944,0 -121.22918530172393,38.69617028850794,0 -121.23649679030996,38.691943323902905,0 -121.24430309262804,38.68829555315058,0 -121.25252915493857,38.6852620152792,0 -121.26109592397654,38.682871845185986,0 -121.26992110182483,38.68114799610156,0 -121.27891993064398,38.68010702103878,0 -121.288006,38.679758915235574,0 -121.297092069356,38.68010702103878,0 -121.30609089817516,38.68114799610156,0 -121.31491607602344,38.682871845185986,0 -121.3234828450614,38.6852620152792,0 -121.33170890737195,38.68829555315058,0 -121.33951520969002,38.691943323902905,0 -121.34682669827605,38.69617028850794,0 -121.35357303691018,38.70093583776944,0 -121.35968928127795,38.706194179629904,0 -121.36511650336892,38.71189477623511,0 -121.36980235991759,38.71798282669787,0 -121.37370159937987,38.724399791061984,0 -121.37677650245548,38.73108395056639,0 -121.37899725173638,38.73797099894821,0 -121.38034222667939,38.744994659209034,0 -121.38079822076587,38.75208732000294,0 -121.3803605784158,38.75918068559098,0 -121.37903324996603,38.766206433149534,0 -121.3768287637935,38.77309687111957,0 -121.3737681154613,38.77978559224355,0 -121.36988057457656,38.786208114959095,0 -121.36520341086899,38.79230250690181,0 -121.3597815418195,38.79800998441683,0 -121.3536671049761,38.80327548218799,0 -121.34691895888331,38.80804818736367,0 -121.33960211731149,38.81228203288837,0 -121.33178712218955,38.81593614513541,0 -121.32354936131458,38.81897524137564,0 -121.31496833752007,38.82136997310584,0 -121.3061268965262,38.82309721179325,0 -121.29711042115812,38.824140274163625,0 -121.288006,38.82448908476442,0</coordinates>
          </LinearRing>
        </outerBoundaryIs>
      </Polygon>
    </Placemark>
  </Document>
</kml>