<?xml version="1.0" encoding="UTF-8"?>
<kml xmlns="http://www.opengis.net/kml/2.2">
  <Document>
    <name>Folsom Trenchless Sewer, Hydro Jetting & French Drain Pros - Service Coverage Area</name>
    <description>Service radius and coverage boundary for Folsom Trenchless Sewer, Hydro Jetting & French Drain Pros.</description>
    <Style id="ring_5mi">
      <LineStyle>
        <color>ff00cc00</color>
        <width>2.5</width>
      </LineStyle>
      <PolyStyle>
        <color>3300ff00</color>
        <fill>1</fill>
        <outline>1</outline>
      </PolyStyle>
    </Style>
    <Style id="ring_10mi">
      <LineStyle>
        <color>ff00aaff</color>
        <width>2.5</width>
      </LineStyle>
      <PolyStyle>
        <color>3300ffff</color>
        <fill>1</fill>
        <outline>1</outline>
      </PolyStyle>
    </Style>
    <Style id="ring_15mi">
      <LineStyle>
        <color>ffffaa00</color>
        <width>2.5</width>
      </LineStyle>
      <PolyStyle>
        <color>33ffaa00</color>
        <fill>1</fill>
        <outline>1</outline>
      </PolyStyle>
    </Style>
    <Style id="ring_25mi">
      <LineStyle>
        <color>ffff0055</color>
        <width>2.5</width>
      </LineStyle>
      <PolyStyle>
        <color>33ff0055</color>
        <fill>1</fill>
        <outline>1</outline>
      </PolyStyle>
    </Style>
    <Placemark>
      <name>Folsom Trenchless Sewer, Hydro Jetting & French Drain Pros (Main Office)</name>
      <description>Main office location: 38.605544, -121.183846</description>
      <Point>
        <coordinates>-121.183846,38.605544,0</coordinates>
      </Point>
    </Placemark>
    <Placemark>
      <name>25-Mile Radius Coverage Boundary</name>
      <styleUrl>#ring_25mi</styleUrl>
      <Polygon>
        <outerBoundaryIs>
          <LinearRing>
            <coordinates>-121.18384600000002,38.96736942382213,0 -121.13823340670788,38.965618304209805,0 -121.09306676880199,38.960382067844094,0 -121.04878748416863,38.95171190703228,0 -121.00582789020511,38.93969256070233,0 -120.96460686887215,38.9244414493508,0 -120.92552561138979,38.906107478481346,0 -120.88896359136282,38.88486952472876,0 -120.85527479150463,38.86093462247942,0 -120.82478422482104,38.834535872104496,0 -120.79778478624789,38.80593009386919,0 -120.7745344654394,38.7753952541324,0 -120.75525394583241,38.74322769257998,0 -120.74012460939842,38.70973918092696,0 -120.72928696078422,38.67525384477498,0 -120.72283947895505,38.64010498112919,0 -120.72083789910383,38.60463180447705,0 -120.72329492256789,38.56917615433526,0 -120.7301803478734,38.53407919680841,0 -120.74142161186029,38.49967815200797,0 -120.75690472615734,38.4663030781891,0 -120.77647559109181,38.43427374221379,0 -120.7999416664255,38.40389660447834,0 -120.82707397609003,38.37546194478861,0 -120.85760942231455,38.349241153860866,0 -120.89125338316143,38.3254842132005,0 -120.92768256645634,38.30441738409276,0 -120.96654809237168,38.28624112435288,0 -121.00747877643903,38.27112824934593,0 -121.05008458447762,38.2592223516176,0 -121.09396023078008,38.250636491285555,0 -121.13868889085033,38.24545216713806,0 -121.18384600000002,38.24371857617787,0 -121.22900310914969,38.24545216713806,0 -121.27373176921994,38.250636491285555,0 -121.3176074155224,38.2592223516176,0 -121.36021322356099,38.27112824934593,0 -121.40114390762835,38.28624112435288,0 -121.4400094335437,38.30441738409276,0 -121.47643861683859,38.3254842132005,0 -121.51008257768547,38.349241153860866,0 -121.54061802390999,38.37546194478861,0 -121.56775033357452,38.40389660447834,0 -121.59121640890821,38.43427374221379,0 -121.61078727384267,38.4663030781891,0 -121.62627038813973,38.49967815200797,0 -121.63751165212663,38.53407919680841,0 -121.64439707743213,38.56917615433526,0 -121.64685410089619,38.60463180447705,0 -121.64485252104497,38.64010498112919,0 -121.6384050392158,38.67525384477498,0 -121.6275673906016,38.70973918092696,0 -121.61243805416761,38.74322769257998,0 -121.59315753456062,38.7753952541324,0 -121.56990721375213,38.80593009386919,0 -121.54290777517897,38.834535872104496,0 -121.51241720849539,38.86093462247942,0 -121.4787284086372,38.88486952472876,0 -121.44216638861025,38.906107478481346,0 -121.40308513112787,38.9244414493508,0 -121.36186410979491,38.93969256070233,0 -121.31890451583139,38.95171190703228,0 -121.27462523119804,38.960382067844094,0 -121.22945859329214,38.965618304209805,0 -121.18384600000002,38.96736942382213,0</coordinates>
          </LinearRing>
        </outerBoundaryIs>
      </Polygon>
    </Placemark>
    <Placemark>
      <name>15-Mile Radius Coverage Boundary</name>
      <styleUrl>#ring_15mi</styleUrl>
      <Polygon>
        <outerBoundaryIs>
          <LinearRing>
            <coordinates>-121.18384600000002,38.822639254293286,0 -121.15653377167936,38.821590711786286,0 -121.1294869624588,38.81845527441859,0 -121.10296834228957,38.813263410912896,0 -121.07723541202348,38.80606556447293,0 -121.05253784142633,38.796931649697605,0 -121.02911499306643,38.7859503560312,0 -121.00719355873521,38.773228265381405,0 -120.98698533343143,38.758888793523525,0 -120.96868514998667,38.74307096675699,0 -120.95246899516978,38.72592804696548,0 -120.93849232563511,38.70762601973537,0 -120.92688859942761,38.688341961492426,0 -120.91776803598097,38.66826230271259,0 -120.9112166147012,38.64758100514262,0 -120.90729531936518,38.62649767162673,0 -120.90603963273509,38.60521560757746,0 -120.9074592830371,38.58393985335773,0 -120.91153824131194,38.56287520686301,0 -120.91823496615251,38.5422242554191,0 -120.92748289001696,38.522185435752924,0 -120.93919113916925,38.5029511402664,0 -120.95324547735807,38.48470588716007,0 -120.96950946160639,38.46762457112927,0 -120.98782579694826,38.4518708104074,0 -121.00801787560755,38.43759540487176,0 -121.02989148496027,38.42493491877315,0 -121.05323666764133,38.414010400413545,0 -121.07782971633854,38.404926249790115,0 -121.10343528514201,38.39776924385927,0 -121.12980859877507,38.392607727662664,0 -121.15669774060385,38.389490978106615,0 -121.18384600000002,38.38844874570672,0 -121.21099425939617,38.389490978106615,0 -121.23788340122495,38.392607727662664,0 -121.264256714858,38.39776924385927,0 -121.28986228366149,38.404926249790115,0 -121.31445533235869,38.414010400413545,0 -121.33780051503975,38.42493491877315,0 -121.35967412439248,38.43759540487176,0 -121.37986620305176,38.4518708104074,0 -121.39818253839363,38.46762457112927,0 -121.41444652264195,38.48470588716007,0 -121.42850086083077,38.5029511402664,0 -121.44020910998306,38.522185435752924,0 -121.44945703384751,38.5422242554191,0 -121.45615375868807,38.56287520686301,0 -121.46023271696293,38.58393985335773,0 -121.46165236726493,38.60521560757746,0 -121.46039668063484,38.62649767162673,0 -121.45647538529882,38.64758100514262,0 -121.44992396401905,38.66826230271259,0 -121.4408034005724,38.688341961492426,0 -121.42919967436491,38.70762601973537,0 -121.41522300483024,38.72592804696548,0 -121.39900685001336,38.74307096675699,0 -121.38070666656859,38.758888793523525,0 -121.36049844126481,38.773228265381405,0 -121.33857700693359,38.7859503560312,0 -121.31515415857369,38.796931649697605,0 -121.29045658797654,38.80606556447293,0 -121.26472365771045,38.813263410912896,0 -121.23820503754122,38.81845527441859,0 -121.21115822832067,38.821590711786286,0 -121.18384600000002,38.822639254293286,0</coordinates>
          </LinearRing>
        </outerBoundaryIs>
      </Polygon>
    </Placemark>
    <Placemark>
      <name>10-Mile Radius Coverage Boundary</name>
      <styleUrl>#ring_10mi</styleUrl>
      <Polygon>
        <outerBoundaryIs>
          <LinearRing>
            <coordinates>-121.18384600000002,38.75027416952886,0 -121.1656562058549,38.74957584768605,0 -121.14764264651322,38.74748764813213,0 -121.12997981854106,38.74402980204657,0 -121.11283876037821,38.73923580628708,0 -121.09638536890435,38.73315209318629,0 -121.08077877008996,38.72583757315164,0 -121.06616976065698,38.71736305487538,0 -121.05269933675902,38.70781054922749,0 -121.04049732458127,38.69727246409039,0 -121.02968112647986,38.6858506984898,0 -121.02035459485315,38.67365564536631,0 -121.01260704439012,38.66080511320797,0 -121.00651241170057,38.64742317751767,0 -121.00212856962786,38.633638973713545,0 -120.9994968018033,38.61958544355309,0 -120.99864144124912,38.60539804752966,0 -120.99956967509796,38.59121345591461,0 -121.00227151579634,38.577168231210564,0 -121.00671993751092,38.56339751474574,0 -121.01287117488435,38.550033729980036,0 -121.02066517979875,38.53720531481743,0 -121.03002623041412,38.525035494832736,0 -121.04086368546264,38.51364110883195,0 -121.0530728756033,38.50313149758187,0 -121.06653612257587,38.493607465875826,0 -121.08112387594136,38.485160327355516,0 -121.09669595635481,38.47787104069335,0 -121.11310289358366,38.471809444863936,0 -121.13018734685626,38.46703360030469,0 -121.14778559459883,38.463589241792114,0 -121.1657290801871,38.46150934785074,0 -121.18384600000002,38.46081383047114,0 -121.20196291981291,38.46150934785074,0 -121.21990640540119,38.463589241792114,0 -121.23750465314377,38.46703360030469,0 -121.25458910641636,38.471809444863936,0 -121.27099604364521,38.47787104069335,0 -121.28656812405866,38.485160327355516,0 -121.30115587742415,38.493607465875826,0 -121.31461912439671,38.50313149758187,0 -121.32682831453738,38.51364110883195,0 -121.3376657695859,38.525035494832736,0 -121.34702682020126,38.53720531481743,0 -121.35482082511567,38.550033729980036,0 -121.36097206248911,38.56339751474574,0 -121.3654204842037,38.577168231210564,0 -121.36812232490207,38.59121345591461,0 -121.36905055875091,38.60539804752966,0 -121.36819519819672,38.61958544355309,0 -121.36556343037218,38.633638973713545,0 -121.36117958829945,38.64742317751767,0 -121.3550849556099,38.66080511320797,0 -121.34733740514687,38.67365564536631,0 -121.33801087352016,38.6858506984898,0 -121.32719467541875,38.69727246409039,0 -121.314992663241,38.70781054922749,0 -121.30152223934304,38.71736305487538,0 -121.28691322991006,38.72583757315164,0 -121.27130663109567,38.73315209318629,0 -121.25485323962181,38.73923580628708,0 -121.23771218145896,38.74402980204657,0 -121.2200493534868,38.74748764813213,0 -121.20203579414512,38.74957584768605,0 -121.18384600000002,38.75027416952886,0</coordinates>
          </LinearRing>
        </outerBoundaryIs>
      </Polygon>
    </Placemark>
    <Placemark>
      <name>5-Mile Radius Coverage Boundary</name>
      <styleUrl>#ring_5mi</styleUrl>
      <Polygon>
        <outerBoundaryIs>
          <LinearRing>
            <coordinates>-121.18384600000002,38.67790908476443,0 -121.17476025395224,38.6775602760104,0 -121.16576227191372,38.67651721910913,0 -121.15693896251307,38.6747899893024,0 -121.1483755322499,38.67239526952215,0 -121.14015465591287,38.66935618784067,0 -121.13235567250204,38.66570209220025,0 -121.12505381470407,38.661468264690356,0 -121.11831947958909,38.656695578243934,0 -121.11221754773676,38.65143009919545,0 -121.1068067574585,38.645722639676016,0 -121.10213914017652,38.639628264309536,0 -121.09825952235335,38.63320575611359,0 -121.09520509864834,38.62651704689467,0 -121.0930050802214,38.61962661775811,0 -121.0916804213165,38.61260087562269,0 -121.09124362645157,38.60550751184004,0 -121.09169863972289,38.59841484916544,0 -121.09304081691474,38.59139118341117,0 -121.09525698029438,38.58450412613526,0 -121.0983255551784,38.5778199546786,0 -121.10221678658581,38.571402975763846,0 -121.10689303355298,38.5653149087113,0 -121.11230913798134,38.55961429411441,0 -121.11841286422569,38.554355933551086,0 -121.1251454050135,38.549590365593254,0 -121.13244194871636,38.54536338301566,0 -121.14023230247871,38.54171559570379,0 -121.1484415652444,38.53868204332073,0 -121.15699084431567,38.53629186131997,0 -121.16579800872691,38.53456800338849,0 -121.17477847242347,38.53352702287814,0 -121.18384600000002,38.53317891523558,0 -121.19291352757655,38.53352702287814,0 -121.20189399127312,38.53456800338849,0 -121.21070115568435,38.53629186131997,0 -121.21925043475562,38.53868204332073,0 -121.22745969752131,38.54171559570379,0 -121.23525005128366,38.54536338301566,0 -121.24254659498652,38.549590365593254,0 -121.24927913577433,38.554355933551086,0 -121.25538286201869,38.55961429411441,0 -121.26079896644706,38.5653149087113,0 -121.2654752134142,38.571402975763846,0 -121.26936644482161,38.5778199546786,0 -121.27243501970564,38.58450412613526,0 -121.27465118308528,38.59139118341117,0 -121.27599336027713,38.59841484916544,0 -121.27644837354845,38.60550751184004,0 -121.27601157868352,38.61260087562269,0 -121.27468691977862,38.61962661775811,0 -121.27248690135168,38.62651704689467,0 -121.26943247764667,38.63320575611359,0 -121.2655528598235,38.639628264309536,0 -121.26088524254152,38.645722639676016,0 -121.25547445226326,38.65143009919545,0 -121.24937252041093,38.656695578243934,0 -121.24263818529595,38.661468264690356,0 -121.23533632749798,38.66570209220025,0 -121.22753734408717,38.66935618784067,0 -121.21931646775012,38.67239526952215,0 -121.21075303748695,38.6747899893024,0 -121.2019297280863,38.67651721910913,0 -121.19293174604778,38.6775602760104,0 -121.18384600000002,38.67790908476443,0</coordinates>
          </LinearRing>
        </outerBoundaryIs>
      </Polygon>
    </Placemark>
  </Document>
</kml>