<?xml version="1.0" encoding="UTF-8"?>
<kml xmlns="http://www.opengis.net/kml/2.2">
  <Document>
    <name>Rocklin Trenchless Sewer, Hydro Jetting & French Drain Pros - Service Coverage Area</name>
    <description>Service radius and coverage boundary for Rocklin Trenchless Sewer, Hydro Jetting & French Drain Pros.</description>
    <Style id="ring_5mi">
      <LineStyle>
        <color>ff00cc00</color>
        <width>2.5</width>
      </LineStyle>
      <PolyStyle>
        <color>3300ff00</color>
        <fill>1</fill>
        <outline>1</outline>
      </PolyStyle>
    </Style>
    <Style id="ring_10mi">
      <LineStyle>
        <color>ff00aaff</color>
        <width>2.5</width>
      </LineStyle>
      <PolyStyle>
        <color>3300ffff</color>
        <fill>1</fill>
        <outline>1</outline>
      </PolyStyle>
    </Style>
    <Style id="ring_15mi">
      <LineStyle>
        <color>ffffaa00</color>
        <width>2.5</width>
      </LineStyle>
      <PolyStyle>
        <color>33ffaa00</color>
        <fill>1</fill>
        <outline>1</outline>
      </PolyStyle>
    </Style>
    <Style id="ring_25mi">
      <LineStyle>
        <color>ffff0055</color>
        <width>2.5</width>
      </LineStyle>
      <PolyStyle>
        <color>33ff0055</color>
        <fill>1</fill>
        <outline>1</outline>
      </PolyStyle>
    </Style>
    <Placemark>
      <name>Rocklin Trenchless Sewer, Hydro Jetting & French Drain Pros (Main Office)</name>
      <description>Main office location: 38.790734, -121.235788</description>
      <Point>
        <coordinates>-121.235788,38.790734,0</coordinates>
      </Point>
    </Placemark>
    <Placemark>
      <name>25-Mile Radius Coverage Boundary</name>
      <styleUrl>#ring_25mi</styleUrl>
      <Polygon>
        <outerBoundaryIs>
          <LinearRing>
            <coordinates>-121.235788,39.15255942382213,0 -121.19005561655094,39.15080824537287,0 -121.14477040434056,39.145571834791845,0 -121.10037496293438,39.136901391181894,0 -121.05730280329996,39.12488166449694,0 -121.01597393939232,39.10963009005328,0 -120.97679064006927,39.091295591381844,0 -120.94013339032095,39.07005706564073,0 -120.90635710715681,39.046121569427775,0 -120.8757876511582,39.0197222261421,0 -120.84871866980366,38.99111587899321,0 -120.82540880334695,38.960580516307736,0 -120.80607927842068,38.92841249791232,0 -120.79091190879264,38.89492361306101,0 -120.78004751696069,38.8604380016236,0 -120.77358478465649,38.825288971063806,0 -120.77157953495377,38.78981574213005,0 -120.7740444436336,38.754360156178436,0 -120.78094917282306,38.71926337667861,0 -120.7922209157439,38.68486261675184,0 -120.80774533771894,38.65148792359231,0 -120.82736789539544,38.619459049368125,0 -120.85089551345513,38.58908243672188,0 -120.87809859586537,38.56064834533173,0 -120.908713346956,38.53442814418393,0 -120.94244437623856,38.51067179227968,0 -120.97896755986777,38.48960552847931,0 -121.01793313093168,38.47142978909912,0 -121.05896897028636,38.45631736974019,0 -121.10168406937652,38.44441184566052,0 -121.14567213634993,38.43582626281322,0 -121.19051531673851,38.43064210947418,0 -121.235788,38.42890857617786,0 -121.2810606832615,38.43064210947418,0 -121.32590386365007,38.43582626281322,0 -121.3698919306235,38.44441184566052,0 -121.41260702971364,38.45631736974019,0 -121.45364286906832,38.47142978909912,0 -121.49260844013224,38.48960552847931,0 -121.52913162376144,38.51067179227968,0 -121.562862653044,38.53442814418393,0 -121.59347740413463,38.56064834533173,0 -121.62068048654488,38.58908243672188,0 -121.64420810460456,38.619459049368125,0 -121.66383066228107,38.65148792359231,0 -121.6793550842561,38.68486261675184,0 -121.69062682717696,38.71926337667861,0 -121.69753155636641,38.754360156178436,0 -121.69999646504623,38.78981574213005,0 -121.6979912153435,38.825288971063806,0 -121.6915284830393,38.8604380016236,0 -121.68066409120736,38.89492361306101,0 -121.6654967215793,38.92841249791232,0 -121.64616719665305,38.960580516307736,0 -121.62285733019637,38.99111587899321,0 -121.5957883488418,39.0197222261421,0 -121.56521889284319,39.046121569427775,0 -121.53144260967905,39.07005706564073,0 -121.49478535993075,39.091295591381844,0 -121.45560206060767,39.10963009005328,0 -121.41427319670004,39.12488166449694,0 -121.37120103706562,39.136901391181894,0 -121.32680559565944,39.145571834791845,0 -121.28152038344906,39.15080824537287,0 -121.235788,39.15255942382213,0</coordinates>
          </LinearRing>
        </outerBoundaryIs>
      </Polygon>
    </Placemark>
    <Placemark>
      <name>15-Mile Radius Coverage Boundary</name>
      <styleUrl>#ring_15mi</styleUrl>
      <Polygon>
        <outerBoundaryIs>
          <LinearRing>
            <coordinates>-121.235788,39.007829254293284,0 -121.20840441113099,39.00678069069082,0 -121.18128695077912,39.003645190854805,0 -121.15469909061288,38.99845322593005,0 -121.12889901791038,38.99125524305161,0 -121.10413706619698,38.98212116210515,0 -121.08065323207491,38.971139678970296,0 -121.05867480499553,38.95841738288747,0 -121.03841413509178,38.944077697576205,0 -121.02006656222218,38.92825965758243,0 -121.00380852712664,38.91111653301847,0 -120.98979588310831,38.892814317362834,0 -120.97816242399021,38.87353009429221,0 -120.96901864130564,38.853450300613424,0 -120.96245072082358,38.83276890324178,0 -120.95851978563594,38.81168550883109,0 -120.95726139019308,38.7904034251011,0 -120.95868526691095,38.76912769313442,0 -120.96277532432491,38.748063109934996,0 -120.96948989326435,38.72741226036386,0 -120.9787622151915,38.70737357720821,0 -120.99050116470688,38.68813944760948,0 -121.00459219627989,38.66989438339095,0 -121.02089850352564,38.652813271999875,0 -121.03926237781167,38.637059723828905,0 -121.05950675163983,38.62278453062178,0 -121.08143691109673,38.610124248513024,0 -121.10484236068946,38.59919991801435,0 -121.12949882306796,38.59011593195417,0 -121.15517035546551,38.58295906101327,0 -121.18161156414904,38.57779764508808,0 -121.20856989774683,38.57468095726453,0 -121.235788,38.573638745706724,0 -121.26300610225317,38.57468095726453,0 -121.28996443585098,38.57779764508808,0 -121.31640564453448,38.58295906101327,0 -121.34207717693205,38.59011593195417,0 -121.36673363931054,38.59919991801435,0 -121.39013908890327,38.610124248513024,0 -121.41206924836017,38.62278453062178,0 -121.43231362218835,38.637059723828905,0 -121.45067749647437,38.652813271999875,0 -121.46698380372011,38.66989438339095,0 -121.48107483529311,38.68813944760948,0 -121.49281378480852,38.70737357720821,0 -121.50208610673565,38.72741226036386,0 -121.50880067567509,38.748063109934996,0 -121.51289073308905,38.76912769313442,0 -121.51431460980692,38.7904034251011,0 -121.51305621436407,38.81168550883109,0 -121.50912527917642,38.83276890324178,0 -121.50255735869436,38.853450300613424,0 -121.49341357600979,38.87353009429221,0 -121.48178011689168,38.892814317362834,0 -121.46776747287338,38.91111653301847,0 -121.45150943777782,38.92825965758243,0 -121.43316186490821,38.944077697576205,0 -121.41290119500447,38.95841738288747,0 -121.39092276792509,38.971139678970296,0 -121.36743893380302,38.98212116210515,0 -121.34267698208961,38.99125524305161,0 -121.31687690938712,38.99845322593005,0 -121.29028904922087,39.003645190854805,0 -121.26317158886903,39.00678069069082,0 -121.235788,39.007829254293284,0</coordinates>
          </LinearRing>
        </outerBoundaryIs>
      </Polygon>
    </Placemark>
    <Placemark>
      <name>10-Mile Radius Coverage Boundary</name>
      <styleUrl>#ring_10mi</styleUrl>
      <Polygon>
        <outerBoundaryIs>
          <LinearRing>
            <coordinates>-121.235788,38.93546416952886,0 -121.21755080237288,38.934765838329255,0 -121.19949030587848,38.93267761106669,0 -121.18178146853971,38.92921971999178,0 -121.16459578057012,38.92442566370117,0 -121.14809957625245,38.918341876866485,0 -121.13245240008274,38.91102727274331,0 -121.11780544416061,38.90255266327064,0 -121.10430007288544,38.89300006283771,0 -121.09206644990365,38.882461882982376,0 -121.08122228096661,38.87104002638057,0 -121.07187168492344,38.858844889476785,0 -121.06410420352005,38.84599428398167,0 -121.05799395902767,38.832612288215465,0 -121.05359896701366,38.818828039900446,0 -121.05096060981836,38.80477448249703,0 -121.05010327454345,38.790587077535804,0 -121.0510341576133,38.77640249562074,0 -121.05374323626302,38.762357298870896,0 -121.05820340565603,38.74858662753065,0 -121.06437077875589,38.73522290331835,0 -121.07218514458684,38.72239456180662,0 -121.08157057912341,38.71022482573919,0 -121.09243620176194,38.69883053070029,0 -121.10467706914869,38.68832101396802,0 -121.1181751970739,38.678797076713735,0 -121.13280070018888,38.670350028962226,0 -121.14841303846278,38.66306082591226,0 -121.16486235856277,38.65699930334034,0 -121.18199091771501,38.652223518883034,0 -121.19963457707716,38.64877920501975,0 -121.21762435122277,38.646699338569015,0 -121.235788,38.64600383047115,0 -121.25395164877725,38.646699338569015,0 -121.27194142292284,38.64877920501975,0 -121.289585082285,38.652223518883034,0 -121.30671364143724,38.65699930334034,0 -121.32316296153722,38.66306082591226,0 -121.33877529981112,38.670350028962226,0 -121.35340080292612,38.678797076713735,0 -121.36689893085132,38.68832101396802,0 -121.37913979823807,38.69883053070029,0 -121.39000542087659,38.71022482573919,0 -121.39939085541317,38.72239456180662,0 -121.40720522124411,38.73522290331835,0 -121.41337259434397,38.74858662753065,0 -121.41783276373698,38.762357298870896,0 -121.42054184238671,38.77640249562074,0 -121.42147272545655,38.790587077535804,0 -121.42061539018164,38.80477448249703,0 -121.41797703298634,38.818828039900446,0 -121.41358204097233,38.832612288215465,0 -121.40747179647995,38.84599428398167,0 -121.39970431507656,38.858844889476785,0 -121.3903537190334,38.87104002638057,0 -121.37950955009634,38.882461882982376,0 -121.36727592711456,38.89300006283771,0 -121.35377055583939,38.90255266327064,0 -121.33912359991727,38.91102727274331,0 -121.32347642374755,38.918341876866485,0 -121.30698021942987,38.92442566370117,0 -121.28979453146029,38.92921971999178,0 -121.27208569412151,38.93267761106669,0 -121.25402519762713,38.934765838329255,0 -121.235788,38.93546416952886,0</coordinates>
          </LinearRing>
        </outerBoundaryIs>
      </Polygon>
    </Placemark>
    <Placemark>
      <name>5-Mile Radius Coverage Boundary</name>
      <styleUrl>#ring_5mi</styleUrl>
      <Polygon>
        <outerBoundaryIs>
          <LinearRing>
            <coordinates>-121.235788,38.86309908476443,0 -121.22667863700038,38.86275027367592,0 -121.21765726789421,38.8617072098612,0 -121.20881102888598,38.8599799688285,0 -121.20022534946064,38.85758523394242,0 -121.19198312057065,38.854546133857376,0 -121.18416388840367,38.85089201722469,0 -121.17684308180235,38.846658166942454,0 -121.17009128102842,38.841885456820584,0 -121.16397353509738,38.83661995410497,0 -121.15854873437006,38.830912471837514,0 -121.15386904447739,38.8248180755172,0 -121.14997940698562,38.8183955489672,0 -121.14691711148956,38.81170682469925,0 -121.14471144306236,38.804816384396425,0 -121.1433834082009,38.7977906354057,0 -121.14294554159542,38.790697269340924,0 -121.14340179523387,38.783604609043714,0 -121.14474751052869,38.77658095023367,0 -121.14696947334366,38.76969390420072,0 -121.15004605099986,38.76300974785279,0 -121.1539474095695,38.75659278733136,0 -121.15863580902254,38.75050474124977,0 -121.16406597308713,38.74480414939596,0 -121.17018553001907,38.73954581247471,0 -121.17693551985803,38.73478026815069,0 -121.18425096317799,38.73055330829199,0 -121.19206148582197,38.726905541912835,0 -121.20029199364718,38.72387200787381,0 -121.20886339089925,38.721481840925215,0 -121.21769333548237,38.719757994177186,0 -121.22669702409928,38.71871702055304,0 -121.235788,38.71836891523558,0 -121.24487897590073,38.71871702055304,0 -121.25388266451763,38.719757994177186,0 -121.26271260910075,38.721481840925215,0 -121.27128400635281,38.72387200787381,0 -121.27951451417803,38.726905541912835,0 -121.28732503682201,38.73055330829199,0 -121.29464048014196,38.73478026815069,0 -121.30139046998093,38.73954581247471,0 -121.30751002691288,38.74480414939596,0 -121.31294019097746,38.75050474124977,0 -121.3176285904305,38.75659278733136,0 -121.32152994900014,38.76300974785279,0 -121.32460652665635,38.76969390420072,0 -121.32682848947132,38.77658095023367,0 -121.32817420476614,38.783604609043714,0 -121.32863045840458,38.790697269340924,0 -121.32819259179911,38.7977906354057,0 -121.32686455693765,38.804816384396425,0 -121.32465888851046,38.81170682469925,0 -121.32159659301438,38.8183955489672,0 -121.31770695552261,38.8248180755172,0 -121.31302726562996,38.830912471837514,0 -121.30760246490262,38.83661995410497,0 -121.3014847189716,38.841885456820584,0 -121.29473291819767,38.846658166942454,0 -121.28741211159634,38.85089201722469,0 -121.27959287942936,38.854546133857376,0 -121.27135065053936,38.85758523394242,0 -121.26276497111402,38.8599799688285,0 -121.25391873210579,38.8617072098612,0 -121.24489736299962,38.86275027367592,0 -121.235788,38.86309908476443,0</coordinates>
          </LinearRing>
        </outerBoundaryIs>
      </Polygon>
    </Placemark>
  </Document>
</kml>